NORAD_CAT_ID,OBJECT_NAME,OBJECT_TYPE,EPOCH,MEAN_MOTION,ECCENTRICITY,INCLINATION,RA_OF_ASC_NODE,ARG_OF_PERICENTER,MEAN_ANOMALY,BSTAR,MEAN_MOTION_DOT,MEAN_MOTION_DDOT,TLE_LINE0,TLE_LINE1,TLE_LINE2,SEMIMAJOR_AXIS,PERIOD,APOGEE,PERIGEE,DECAYED
52684.0,STARLINK-4014,PAYLOAD,2024-08-12 09:12:01,15.08850941,0.0001154,53.2142,202.2808,114.5147,245.5965,0.00029767,4.454e-05,0.0,0 STARLINK-4014,1 52684U 22053AE  24225.38335380  .00004454  00000-0  29767-3 0  9996,2 52684  53.2142 202.2808 0001154 114.5147 245.5965 15.08850941124059,6917.847,95.437,540.51,538.914,0.0
52684.0,STARLINK-4014,PAYLOAD,2024-08-12 15:33:33,15.08870369,0.0001771,53.2161,201.0947,80.3144,279.8048,0.00048098,7.381e-05,0.0,0 STARLINK-4014,1 52684U 22053AE  24225.64830453  .00007381  00000-0  48098-3 0  9996,2 52684  53.2161 201.0947 0001771  80.3144 279.8048 15.08870369124095,6917.788,95.436,540.878,538.427,0.0
52684.0,STARLINK-4014,PAYLOAD,2024-08-12 21:55:06,15.08871555,0.0003432,53.2147,199.9061,78.9091,281.2287,0.00062704,9.714e-05,0.0,0 STARLINK-4014,1 52684U 22053AE  24225.91326982  .00009714  00000-0  62704-3 0  9995,2 52684  53.2147 199.9061 0003432  78.9091 281.2287 15.08871555124518,6917.784,95.436,542.023,537.275,0.0
52684.0,STARLINK-4014,PAYLOAD,2024-08-13 04:16:39,15.0883473,0.0001457,53.2157,198.7125,77.7405,282.375,-0.00021277,-3.672e-05,0.0,0 STARLINK-4014,1 52684U 22053AE  24226.17823682 -.00003672  00000-0 -21277-3 0  9992,2 52684  53.2157 198.7125 0001457  77.7405 282.3750 15.08834730124171,6917.896,95.438,540.769,538.754,0.0
52684.0,STARLINK-4014,PAYLOAD,2024-08-13 07:27:25,15.08835706,0.0001468,53.2155,198.1174,75.815,284.3005,-0.00016189,-2.863e-05,0.0,0 STARLINK-4014,1 52684U 22053AE  24226.31071704 -.00002863  00000-0 -16189-3 0  9995,2 52684  53.2155 198.1174 0001468  75.8150 284.3005 15.08835706124578,6917.894,95.438,540.774,538.743,0.0
52684.0,STARLINK-4014,PAYLOAD,2024-08-13 15:24:21,15.08838653,0.0001438,53.2152,196.6317,78.6755,281.4399,2.4957e-05,1.09e-06,0.0,0 STARLINK-4014,1 52684U 22053AE  24226.64191667  .00000109  00000-0  24957-4 0  9994,2 52684  53.2152 196.6317 0001438  78.6755 281.4399 15.08838653124620,6917.885,95.438,540.744,538.755,0.0
52684.0,STARLINK-4014,PAYLOAD,2024-08-14 07:18:14,15.08822441,0.0001429,53.2155,193.657,100.3779,259.7374,-9.2933e-05,-1.766e-05,0.0,0 STARLINK-4014,1 52684U 22053AE  24227.30432872 -.00001766  00000-0 -92933-4 0  9995,2 52684  53.2155 193.6570 0001429 100.3779 259.7374 15.08822441124348,6917.934,95.439,540.788,538.81,0.0
52684.0,STARLINK-4014,PAYLOAD,2024-08-14 15:15:09,15.08832157,0.0001364,53.2152,192.1721,88.7964,271.3184,5.4466e-05,5.79e-06,0.0,0 STARLINK-4014,1 52684U 22053AE  24227.63552958  .00000579  00000-0  54466-4 0  9997,2 52684  53.2152 192.1721 0001364  88.7964 271.3184 15.08832157124399,6917.904,95.438,540.713,538.826,0.0
52684.0,STARLINK-4014,PAYLOAD,2024-08-15 03:58:15,15.08842435,0.0001372,53.214,189.7917,84.4416,275.6733,0.00068106,0.00010568,0.0,0 STARLINK-4014,1 52684U 22053AE  24228.16545226  .00010568  00000-0  68106-3 0  9990,2 52684  53.2140 189.7917 0001372  84.4416 275.6733 15.08842435124857,6917.873,95.437,540.687,538.789,0.0
52684.0,STARLINK-4014,PAYLOAD,2024-08-15 15:05:56,15.08857435,0.0001378,53.2142,187.7106,83.8809,276.234,0.00081714,0.00012747,0.0,0 STARLINK-4014,1 52684U 22053AE  24228.62912813  .00012747  00000-0  81714-3 0  9992,2 52684  53.2142 187.7106 0001378  83.8809 276.2340 15.08857435124545,6917.827,95.436,540.645,538.739,0.0
52684.0,STARLINK-4014,PAYLOAD,2024-08-16 03:49:01,15.08849302,0.0001413,53.2143,185.3317,94.512,265.6033,0.00043062,6.574e-05,0.0,0 STARLINK-4014,1 52684U 22053AE  24229.15904841  .00006574  00000-0  43062-3 0  9998,2 52684  53.2143 185.3317 0001413  94.5120 265.6033 15.08849302124623,6917.852,95.437,540.694,538.739,0.0
52684.0,STARLINK-4014,PAYLOAD,2024-08-17 03:39:49,15.08839387,0.0001414,53.2156,180.8705,105.48,254.6349,3.4843e-05,2.67e-06,0.0,0 STARLINK-4014,1 52684U 22053AE  24230.15265063  .00000267  00000-0  34843-4 0  9997,2 52684  53.2156 180.8705 0001414 105.4800 254.6349 15.08839387124772,6917.882,95.438,540.725,538.769,0.0
52684.0,STARLINK-4014,PAYLOAD,2024-08-17 21:09:03,15.08841237,0.000151,53.2161,177.5982,114.014,246.101,0.0001622,2.294e-05,0.0,0 STARLINK-4014,1 52684U 22053AE  24230.88129137  .00002294  00000-0  16220-3 0  9998,2 52684  53.2161 177.5982 0001510 114.0140 246.1010 15.08841237125261,6917.877,95.437,540.786,538.697,0.0
52684.0,STARLINK-4014,PAYLOAD,2024-08-18 03:30:36,15.08839212,0.0001337,53.2159,176.4079,109.1152,250.9985,7.1433e-05,8.49e-06,0.0,0 STARLINK-4014,1 52684U 22053AE  24231.14625186  .00000849  00000-0  71433-4 0  9995,2 52684  53.2159 176.4079 0001337 109.1152 250.9985 15.08839212125307,6917.883,95.438,540.673,538.823,0.0
52684.0,STARLINK-4014,PAYLOAD,2024-08-19 03:21:24,15.08822699,0.0001398,53.2164,171.9501,102.824,257.2908,-4.5377e-05,-1.01e-05,0.0,0 STARLINK-4014,1 52684U 22053AE  24232.13987207 -.00001010  00000-0 -45377-4 0  9991,2 52684  53.2164 171.9501 0001398 102.8240 257.2908 15.08822699125078,6917.933,95.439,540.765,538.831,0.0
52684.0,STARLINK-4014,PAYLOAD,2024-08-19 12:53:43,15.0883881,0.0001252,53.2163,170.1706,110.342,249.7706,0.00020567,2.987e-05,0.0,0 STARLINK-4014,1 52684U 22053AE  24232.53730683  .00002987  00000-0  20567-3 0  9994,2 52684  53.2163 170.1706 0001252 110.3420 249.7706 15.08838810125139,6917.884,95.438,540.615,538.883,0.0
52684.0,STARLINK-4014,PAYLOAD,2024-08-20 04:47:34,15.08861547,0.0001449,53.2159,167.1931,85.6391,274.4767,0.00087852,0.0001373,0.0,0 STARLINK-4014,1 52684U 22053AE  24233.19970515  .00013730  00000-0  87852-3 0  9995,2 52684  53.2159 167.1931 0001449  85.6391 274.4767 15.08861547125235,6917.815,95.436,540.682,538.677,0.0
52684.0,STARLINK-4014,PAYLOAD,2024-08-21 03:02:57,15.08851999,0.0001276,53.2161,163.0294,81.934,278.1797,0.0001932,2.789e-05,0.0,0 STARLINK-4014,1 52684U 22053AE  24234.12705811  .00002789  00000-0  19320-3 0  9991,2 52684  53.2161 163.0294 0001276  81.9340 278.1797 15.08851999125375,6917.844,95.437,540.591,538.826,0.0
52684.0,STARLINK-4014,PAYLOAD,2024-08-21 18:56:49,15.0884773,0.0001349,53.2156,160.0584,82.3785,277.736,-3.8965e-05,-9.08e-06,0.0,0 STARLINK-4014,1 52684U 22053AE  24234.78945654 -.00000908  00000-0 -38965-4 0  9994,2 52684  53.2156 160.0584 0001349  82.3785 277.7360 15.08847730125477,6917.857,95.437,540.655,538.789,0.0
